NORAD_CAT_ID,TLE_LINE0,TLE_LINE1,TLE_LINE2,CREATION_DATE,OBJECT_NAME,OBJECT_ID,EPOCH,MEAN_MOTION,ECCENTRICITY,INCLINATION,RA_OF_ASC_NODE,ARG_OF_PERICENTER,MEAN_ANOMALY,REV_AT_EPOCH,BSTAR,MEAN_MOTION_DOT,MEAN_MOTION_DDOT,SEMIMAJOR_AXIS,PERIOD,APOAPSIS,PERIAPSIS,OBJECT_TYPE,COUNTRY_CODE,LAUNCH_DATE,SITE,DECAY_DATE,LAUNCH_YEAR,LAUNCH_SEQ,EPOCH_FINAL,ORBIT_CLASS,EVENT,DURATION,RCS_SIZE
622,0 MIDAS 7/ERS 10,1 00622U 63030A   25193.47731027  .00000006  00000-0  20158-2 0  9997,2 00622  88.4149 229.9523 0032069  40.1700 320.1513  8.57932312430642,12/07/2025 17:51,MIDAS 7/ERS 10,1963-030A,12/07/2025 11:27,8.57932312,0.0032069,88.4149,229.9523,40.17,320.1513,43064,0.0020158,6e-08,0.0,10079.365,167.845,3733.553,3668.906,PAYLOAD,US,19/07/1963,AFWTR,,1963,30,12/07/2025 22:54,MEO,0,22640,LARGE
623,0 THOR AGENA D DEB,1 00623U 63029  B 63209.68181470  .04381473 +31501-1 +00000-0 0  9997,2 00623 082.8485 351.1213 0000000 115.7513 244.3303 16.31742227001563,15/08/2004 23:35,THOR AGENA D DEB,1963-029B,28/07/1963 16:21,16.31742227,0.0,82.8485,351.1213,115.7513,244.3303,156,0.0,0.04381473,0.031501,6566.003,88.249,187.868,187.868,DEBRIS,US,22/07/1963,AFWTR,29/07/1963,1963,29,29/07/1963 08:43,LEO,1,7,SMALL
624,0 DASH 2,1 00624U 63030  D 71102.17622477  .42359471 +00000-0 +00000-0 0  9996,2 00624 084.3125 087.1383 0191759 136.7011 224.9448 15.56102411246593,15/08/2004 23:38,DASH 2,1963-030D,12/04/1971 04:13,15.56102411,0.0191759,84.3125,87.1383,136.7011,224.9448,24659,0.0,0.42359471,0.0,6777.091,92.538,528.913,268.999,PAYLOAD,US,24/07/1963,AFWTR,12/04/1971,1963,30,12/04/1971 08:27,LEO,1,2819,MEDIUM
625,0 DELTA 1 R/B,1 00625U 63031  B 89190.91080143  .37342384 -13300-4 +69272-3 0  9994,2 00625 032.5131 129.1540 0031608 277.9620 082.1317 16.43930641760599,02/05/2005 23:40,DELTA 1 R/B,1963-031B,09/07/1989 21:51,16.43930641,0.0031608,32.5131,129.154,277.962,82.1317,76059,0.00069272,0.37342384,-1.33e-05,6533.508,87.594,176.024,134.722,ROCKET BODY,US,26/07/1963,AFETR,09/07/1989,1963,31,10/07/1989 19:43,LEO,1,9480,LARGE
627,0 THOR AGENA D DEB,1 00627U 63032  B 63217.82418771  .00697813 +00000-0 +00000-0 0  9990,2 00627 074.9109 005.6761 0187454 118.5214 243.3837 15.96124045000932,15/08/2004 23:35,THOR AGENA D DEB,1963-032B,05/08/1963 19:46,15.96124045,0.0187454,74.9109,5.6761,118.5214,243.3837,93,0.0,0.00697813,0.0,6663.325,90.218,410.097,160.283,DEBRIS,US,26/07/1963,AFWTR,10/08/1963,1963,32,06/08/1963 15:33,LEO,1,15,SMALL
628,0 WESTFORD NEEDLES,1 00628U 63014F   25191.09603823  .00000003  00000-0  00000-0 0  9992,2 00628  87.3193 235.6186 0019131  94.2235 266.0805  8.63371764959432,10/07/2025 19:44,WESTFORD NEEDLES,1963-014F,10/07/2025 02:18,8.63371764,0.0019131,87.3193,235.6186,94.2235,266.0805,95943,0.0,3e-08,0.0,10036.985,166.788,3678.052,3639.648,DEBRIS,US,09/05/1963,AFWTR,,1963,14,10/07/2025 04:36,MEO,0,22711,LARGE
629,0 WESTFORD NEEDLES,1 00629U 63014G   25193.50295620  .00000017  00000-0  68151-2 0  9991,2 00629  87.3307 223.5604 0067572 349.6440  10.3020  8.65565560964805,12/07/2025 17:51,WESTFORD NEEDLES,1963-014G,12/07/2025 12:04,8.6556556,0.0067572,87.3307,223.5604,349.644,10.302,96480,0.0068151,1.7e-07,0.0,10020.019,166.365,3709.591,3574.176,DEBRIS,US,09/05/1963,AFWTR,,1963,14,13/07/2025 00:08,MEO,0,22711,LARGE
630,0 ATLAS AGENA B DEB,1 00630U 63030C   25193.47803729  .00000018  00000-0  75854-2 0  9991,2 00630  88.4290 221.6037 0049431 228.5093 131.1509  8.59860521945634,12/07/2025 17:51,ATLAS AGENA B DEB,1963-030C,12/07/2025 11:28,8.59860521,0.0049431,88.429,221.6037,228.5093,131.1509,94563,0.0075854,1.8e-07,0.0,10064.291,167.469,3735.904,3636.407,DEBRIS,US,19/07/1963,AFWTR,,1963,30,12/07/2025 22:56,MEO,0,22640,LARGE
631,0 ATLAS AGENA B DEB,1 00631U 63030E   25193.02880354  .00000003  00000-0  00000-0 0  9995,2 00631  88.4040 235.9289 0167387  62.6070 299.1701  8.55877426936534,12/07/2025 17:51,ATLAS AGENA B DEB,1963-030E,12/07/2025 00:41,8.55877426,0.0167387,88.404,235.9289,62.607,299.1701,93653,0.0,3e-08,0.0,10095.491,168.248,3886.342,3548.371,DEBRIS,US,19/07/1963,AFWTR,,1963,30,12/07/2025 01:22,MEO,0,22640,LARGE
632,0 COSMOS 19,1 00632U 63033  A 64086.74546813  .01439151 +00000-0 +00000-0 0  9992,2 00632 049.0033 153.2792 0011535 155.5481 204.5065 16.23704152036906,15/08/2004 23:35,COSMOS 19,1963-033A,26/03/1964 17:53,16.23704152,0.0011535,49.0033,153.2792,155.5481,204.5065,3690,0.0,0.01439151,0.0,6587.655,88.686,217.118,201.921,PAYLOAD,CIS,28/07/1963,PKMTR,30/03/1964,1963,33,27/03/1964 11:46,LEO,1,246,MEDIUM
633,0 SL-7 R/B,1 00633U 63033  B 63337.76594490  .00578357 +00000-0 +00000-0 0  9998,2 00633 048.9425 058.4996 0010173 320.3370 039.3100 16.09677216018872,15/08/2004 23:35,SL-7 R/B,1963-033B,03/12/1963 18:22,16.09677216,0.0010173,48.9425,58.4996,320.337,39.31,1887,0.0,0.00578357,0.0,6625.87,89.458,254.475,240.994,ROCKET BODY,CIS,30/07/1963,PKMTR,08/12/1963,1963,33,04/12/1963 12:45,LEO,1,131,LARGE
634,0 SYNCOM 2 (A 26),1 00634U 63031A   25192.82872848 -.00000171  00000-0  00000-0 0  9992,2 00634  30.7130 305.2561 0008861 196.9168 172.1989  1.00275613226950,12/07/2025 04:02,SYNCOM 2 (A 26),1963-031A,11/07/2025 19:53,1.00275613,0.0008861,30.713,305.2561,196.9168,172.1989,22695,0.0,-1.71e-06,0.0,42163.659,1436.042,35822.885,35748.163,PAYLOAD,US,26/07/1963,AFETR,,1963,31,12/07/2025 15:46,GEO,0,22633,LARGE
635,0 ERS 9,1 00635U 63030B   25187.33266723  .00000000  00000-0 -10737-2 0  9992,2 00635  88.4124 234.1234 0046588  18.3200 341.9317  8.57948244940784,06/07/2025 18:05,ERS 9,1963-030B,06/07/2025 07:59,8.57948244,0.0046588,88.4124,234.1234,18.32,341.9317,94078,-0.0010737,0.0,0.0,10079.24,167.842,3748.062,3654.148,PAYLOAD,US,19/07/1963,AFWTR,,1963,30,06/07/2025 15:58,MEO,0,22640,LARGE
637,0 THOR AGENA D,1 00637U 63035  A 63309.32966707  .01518971 +00000-0 +00000-0 0  9996,2 00637 081.8766 269.6810 0000115 309.8399 050.1675 16.27407972010778,15/08/2004 23:35,THOR AGENA D,1963-035A,05/11/1963 07:54,16.27407972,1.15e-05,81.8766,269.681,309.8399,50.1675,1077,0.0,0.01518971,0.0,6577.656,88.484,199.596,199.445,PAYLOAD,US,03/08/1963,AFWTR,07/11/1963,1963,35,05/11/1963 15:49,LEO,1,96,MEDIUM
638,0 0.1 SQ METER TARGET,1 00638U 63035  B 63271.47012064  .09524819 +00000-0 +00000-0 0  9995,2 00638 081.8534 316.3051 0010052 320.6183 039.3089 16.19954816004677,15/08/2004 23:35,0.1 SQ METER TARGET,1963-035B,28/09/1963 11:16,16.19954816,0.0010052,81.8534,316.3051,320.6183,39.3089,467,0.0,0.09524819,0.0,6597.815,88.891,226.312,213.048,PAYLOAD,US,05/08/1963,AFETR,13/10/1963,1963,35,28/09/1963 22:33,LEO,1,69,MEDIUM
639,0 THOR AGENA D DEB,1 00639U 63035  C 63243.72527072  .00059397 +00000-0 +00000-0 0  9998,2 00639 081.8986 348.9596 0020530 227.4679 132.3585 15.87428438000301,15/08/2004 23:35,THOR AGENA D DEB,1963-035C,31/08/1963 17:24,15.87428438,0.002053,81.8986,348.9596,227.4679,132.3585,30,0.0,0.00059397,0.0,6687.636,90.712,323.231,295.772,DEBRIS,US,07/08/1963,AFWTR,02/09/1963,1963,35,01/09/1963 10:48,LEO,1,26,SMALL
640,0 THOR AGENA D DEB,1 00640U 63035  D 63243.72379633  .00139583 +00000-0 +00000-0 0  9994,2 00640 081.8879 348.9625 0013647 213.2765 146.6403 15.95516231000302,15/08/2004 23:35,THOR AGENA D DEB,1963-035D,31/08/1963 17:22,15.95516231,0.0013647,81.8879,348.9625,213.2765,146.6403,30,0.0,0.00139583,0.0,6665.017,90.252,295.978,277.786,DEBRIS,US,09/08/1963,AFWTR,01/09/1963,1963,35,01/09/1963 10:44,LEO,1,23,SMALL
641,0 ATLAS AGENA D,1 00641U 63036  A 63251.15365145  .00297283 +00000-0 +00000-0 0  9997,2 00641 094.3652 336.3486 0078548 114.9380 245.8801 16.17660520000229,15/08/2004 23:35,ATLAS AGENA D,1963-036A,08/09/1963 03:41,16.1766052,0.0078548,94.3652,336.3486,114.938,245.8801,22,0.0,0.00297283,0.0,6604.052,89.017,277.791,174.044,PAYLOAD,US,11/08/1963,AFETR,13/09/1963,1963,36,08/09/1963 07:22,LEO,1,33,MEDIUM
642,0 THOR AGENA D DEB,1 00642U 63034  B 63249.96855161  .07554784 +00000-0 +00000-0 0  9993,2 00642 074.9900 021.9373 0100151 111.6130 249.4721 16.21754715000311,15/08/2004 23:35,THOR AGENA D DEB,1963-034B,06/09/1963 23:14,16.21754715,0.0100151,74.99,21.9373,111.613,249.4721,31,0.0,0.07554784,0.0,6592.933,88.792,280.827,148.769,DEBRIS,US,01/08/1963,AFWTR,08/09/1963,1963,34,07/09/1963 22:29,LEO,1,38,SMALL
643,0 THOR ABLESTAR DEB,1 00643U 61015GU  25193.15822844  .00000465  00000-0  75890-3 0  9997,2 00643  66.3688 108.4914 0336160 229.8048 127.3131 13.35824900 64565,12/07/2025 17:51,THOR ABLESTAR DEB,1961-015GU,12/07/2025 03:47,13.358249,0.033616,66.3688,108.4914,229.8048,127.3131,6456,0.0007589,4.65e-06,0.0,7503.009,107.799,1377.095,872.653,DEBRIS,US,29/06/1961,AFETR,,1961,15,12/07/2025 07:35,LEO,0,23390,SMALL
644,0 THOR ABLESTAR DEB,1 00644U 61015GV  25193.51988808  .00000171  00000-0  29699-3 0  9991,2 00644  67.0997 355.4585 0141222 355.0719  62.7627 13.60823094151510,12/07/2025 17:51,THOR ABLESTAR DEB,1961-015GV,12/07/2025 12:28,13.60823094,0.0141222,67.0997,355.4585,355.0719,62.7627,15151,0.00029699,1.71e-06,0.0,7410.839,105.818,1137.362,928.047,DEBRIS,US,29/06/1961,AFETR,,1961,15,13/07/2025 00:57,LEO,0,23390,SMALL
645,0 THOR ABLESTAR DEB,1 00645U 61015GW  25193.40327659  .00000148  00000-0  43536-3 0  9991,2 00645  66.5846 227.1339 0414323 322.3542 148.4393 13.04682374 35487,12/07/2025 17:51,THOR ABLESTAR DEB,1961-015GW,12/07/2025 09:40,13.04682374,0.0414323,66.5846,227.1339,322.3542,148.4393,3548,0.00043536,1.48e-06,0.0,7621.936,110.372,1559.596,928.007,DEBRIS,US,29/06/1961,AFETR,,1961,15,12/07/2025 19:21,LEO,0,23390,SMALL
646,0 THOR ABLESTAR DEB,1 00646U 61015 GX 72156.17684570  .02287430 +00000-0 +00000-0 0  9994,2 00646 067.0811 063.0204 0016740 102.6893 257.6118 16.03444089584043,22/04/2005 16:12,THOR ABLESTAR DEB,1961-015GX,04/06/1972 04:14,16.03444089,0.001674,67.0811,63.0204,102.6893,257.6118,58404,0.0,0.0228743,0.0,6643.03,89.806,276.015,253.774,DEBRIS,US,17/04/1961,AFWTR,07/06/1972,1961,15,04/06/1972 08:29,LEO,1,4069,SMALL
